*******************************************************************************
Revised: Sep 12, 1996           Earth Barycenter                              3
 
 Dynamical point:
 ---------------
 The common point about which the Earth and Moon revolve (center of mass). This
 is approximately 4671 km from the center of the Earth, or about 3/4 of the way 
 to the surface. See 399 for Earth center, or 301 for Moon center ephemeris.

*******************************************************************************
 
 
*******************************************************************************
Ephemeris / WWW_USER Mon Jun 24 14:41:26 2013 Pasadena, USA      / Horizons    
*******************************************************************************
Target body name: Earth-Moon Barycenter (3)       {source: DE405}
Center body name: Solar System Barycenter (0)     {source: DE405}
Center-site name: BODY CENTER
*******************************************************************************
Start time      : A.D. 2019-Oct-08 00:00:00.0000 CT 
Stop  time      : A.D. 2019-Oct-11 00:00:00.0000 CT 
Step-size       : 60 minutes
*******************************************************************************
Center geodetic : 0.00000000,0.00000000,0.0000000 {E-lon(deg),Lat(deg),Alt(km)}
Center cylindric: 0.00000000,0.00000000,0.0000000 {E-lon(deg),Dxy(km),Dz(km)}
Center radii    : (undefined)                                                  
Output units    : KM-S                                                         
Output format   : 05
Reference frame : ICRF/J2000.0                                                 
Output type     : GEOMETRIC cartesian states
Coordinate systm: Ecliptic and Mean Equinox of Reference Epoch                 
*******************************************************************************
JDCT 
   VX    VY    VZ
*******************************************************************************
$$SOE
2458764.500000000 = A.D. 2019-Oct-08 00:00:00.0000 (CT)
  -7.784127769815746E+00  2.877004465010284E+01 -9.026386957009499E-04
2458764.541666667 = A.D. 2019-Oct-08 01:00:00.0000 (CT)
  -7.804851478886765E+00  2.876481043002715E+01 -9.023455810996794E-04
2458764.583333333 = A.D. 2019-Oct-08 02:00:00.0000 (CT)
  -7.825571925075954E+00  2.875956121555999E+01 -9.020517917579813E-04
2458764.625000000 = A.D. 2019-Oct-08 03:00:00.0000 (CT)
  -7.846289097455703E+00  2.875429700832957E+01 -9.017573278117617E-04
2458764.666666667 = A.D. 2019-Oct-08 04:00:00.0000 (CT)
  -7.867002985098516E+00  2.874901780997217E+01 -9.014621894035254E-04
2458764.708333333 = A.D. 2019-Oct-08 05:00:00.0000 (CT)
  -7.887713577077029E+00  2.874372362213215E+01 -9.011663766725986E-04
2458764.750000000 = A.D. 2019-Oct-08 06:00:00.0000 (CT)
  -7.908420862464015E+00  2.873841444646190E+01 -9.008698897533859E-04
2458764.791666667 = A.D. 2019-Oct-08 07:00:00.0000 (CT)
  -7.929124830332379E+00  2.873309028462188E+01 -9.005727287892821E-04
2458764.833333333 = A.D. 2019-Oct-08 08:00:00.0000 (CT)
  -7.949825469755174E+00  2.872775113828065E+01 -9.002748939101780E-04
2458764.875000000 = A.D. 2019-Oct-08 09:00:00.0000 (CT)
  -7.970522769805606E+00  2.872239700911480E+01 -8.999763852610429E-04
2458764.916666667 = A.D. 2019-Oct-08 10:00:00.0000 (CT)
  -7.991216719557038E+00  2.871702789880900E+01 -8.996772029727937E-04
2458764.958333333 = A.D. 2019-Oct-08 11:00:00.0000 (CT)
  -8.011907308082989E+00  2.871164380905600E+01 -8.993773471767585E-04
2458765.000000000 = A.D. 2019-Oct-08 12:00:00.0000 (CT)
  -8.032594524457153E+00  2.870624474155662E+01 -8.990768180151040E-04
2458765.041666667 = A.D. 2019-Oct-08 13:00:00.0000 (CT)
  -8.053278357753399E+00  2.870083069801974E+01 -8.987756156134492E-04
2458765.083333333 = A.D. 2019-Oct-08 14:00:00.0000 (CT)
  -8.073958797045776E+00  2.869540168016233E+01 -8.984737401108592E-04
2458765.125000000 = A.D. 2019-Oct-08 15:00:00.0000 (CT)
  -8.094635831408512E+00  2.868995768970943E+01 -8.981711916383351E-04
2458765.166666667 = A.D. 2019-Oct-08 16:00:00.0000 (CT)
  -8.115309449916033E+00  2.868449872839414E+01 -8.978679703269543E-04
2458765.208333333 = A.D. 2019-Oct-08 17:00:00.0000 (CT)
  -8.135979641642967E+00  2.867902479795766E+01 -8.975640763065748E-04
2458765.250000000 = A.D. 2019-Oct-08 18:00:00.0000 (CT)
  -8.156646395664138E+00  2.867353590014926E+01 -8.972595097033308E-04
2458765.291666667 = A.D. 2019-Oct-08 19:00:00.0000 (CT)
  -8.177309701054584E+00  2.866803203672630E+01 -8.969542706550706E-04
2458765.333333333 = A.D. 2019-Oct-08 20:00:00.0000 (CT)
  -8.197969546889556E+00  2.866251320945420E+01 -8.966483592837459E-04
2458765.375000000 = A.D. 2019-Oct-08 21:00:00.0000 (CT)
  -8.218625922244531E+00  2.865697942010650E+01 -8.963417757230207E-04
2458765.416666667 = A.D. 2019-Oct-08 22:00:00.0000 (CT)
  -8.239278816195213E+00  2.865143067046478E+01 -8.960345200961020E-04
2458765.458333333 = A.D. 2019-Oct-08 23:00:00.0000 (CT)
  -8.259928217817532E+00  2.864586696231872E+01 -8.957265925270365E-04
2458765.500000000 = A.D. 2019-Oct-09 00:00:00.0000 (CT)
  -8.280574116187665E+00  2.864028829746612E+01 -8.954179931457184E-04
2458765.541666667 = A.D. 2019-Oct-09 01:00:00.0000 (CT)
  -8.301216500382038E+00  2.863469467771282E+01 -8.951087220729938E-04
2458765.583333333 = A.D. 2019-Oct-09 02:00:00.0000 (CT)
  -8.321855359477315E+00  2.862908610487278E+01 -8.947987794388152E-04
2458765.625000000 = A.D. 2019-Oct-09 03:00:00.0000 (CT)
  -8.342490682550428E+00  2.862346258076803E+01 -8.944881653601758E-04
2458765.666666667 = A.D. 2019-Oct-09 04:00:00.0000 (CT)
  -8.363122458678573E+00  2.861782410722871E+01 -8.941768799619791E-04
2458765.708333333 = A.D. 2019-Oct-09 05:00:00.0000 (CT)
  -8.383750676939206E+00  2.861217068609303E+01 -8.938649233667124E-04
2458765.750000000 = A.D. 2019-Oct-09 06:00:00.0000 (CT)
  -8.404375326410069E+00  2.860650231920733E+01 -8.935522956966232E-04
2458765.791666667 = A.D. 2019-Oct-09 07:00:00.0000 (CT)
  -8.424996396169176E+00  2.860081900842601E+01 -8.932389970685009E-04
2458765.833333333 = A.D. 2019-Oct-09 08:00:00.0000 (CT)
  -8.445613875294836E+00  2.859512075561158E+01 -8.929250276042168E-04
2458765.875000000 = A.D. 2019-Oct-09 09:00:00.0000 (CT)
  -8.466227752865645E+00  2.858940756263464E+01 -8.926103874176885E-04
2458765.916666667 = A.D. 2019-Oct-09 10:00:00.0000 (CT)
  -8.486838017960505E+00  2.858367943137390E+01 -8.922950766303084E-04
2458765.958333333 = A.D. 2019-Oct-09 11:00:00.0000 (CT)
  -8.507444659658615E+00  2.857793636371617E+01 -8.919790953594246E-04
2458766.000000000 = A.D. 2019-Oct-09 12:00:00.0000 (CT)
  -8.528047667039489E+00  2.857217836155634E+01 -8.916624437207317E-04
2458766.041666667 = A.D. 2019-Oct-09 13:00:00.0000 (CT)
  -8.548647029182963E+00  2.856640542679742E+01 -8.913451218266408E-04
2458766.083333333 = A.D. 2019-Oct-09 14:00:00.0000 (CT)
  -8.569242735169187E+00  2.856061756135054E+01 -8.910271297966101E-04
2458766.125000000 = A.D. 2019-Oct-09 15:00:00.0000 (CT)
  -8.589834774078648E+00  2.855481476713489E+01 -8.907084677397450E-04
2458766.166666667 = A.D. 2019-Oct-09 16:00:00.0000 (CT)
  -8.610423134992166E+00  2.854899704607779E+01 -8.903891357695875E-04
2458766.208333333 = A.D. 2019-Oct-09 17:00:00.0000 (CT)
  -8.631007806990901E+00  2.854316440011467E+01 -8.900691340018299E-04
2458766.250000000 = A.D. 2019-Oct-09 18:00:00.0000 (CT)
  -8.651588779156365E+00  2.853731683118907E+01 -8.897484625425833E-04
2458766.291666667 = A.D. 2019-Oct-09 19:00:00.0000 (CT)
  -8.672166040570417E+00  2.853145434125263E+01 -8.894271215056510E-04
2458766.333333333 = A.D. 2019-Oct-09 20:00:00.0000 (CT)
  -8.692739580315278E+00  2.852557693226510E+01 -8.891051109992717E-04
2458766.375000000 = A.D. 2019-Oct-09 21:00:00.0000 (CT)
  -8.713309387473540E+00  2.851968460619434E+01 -8.887824311330766E-04
2458766.416666667 = A.D. 2019-Oct-09 22:00:00.0000 (CT)
  -8.733875451128160E+00  2.851377736501631E+01 -8.884590820127649E-04
2458766.458333333 = A.D. 2019-Oct-09 23:00:00.0000 (CT)
  -8.754437760362475E+00  2.850785521071511E+01 -8.881350637473858E-04
2458766.500000000 = A.D. 2019-Oct-10 00:00:00.0000 (CT)
  -8.774996304260208E+00  2.850191814528295E+01 -8.878103764447696E-04
2458766.541666667 = A.D. 2019-Oct-10 01:00:00.0000 (CT)
  -8.795551071905471E+00  2.849596617072013E+01 -8.874850202081654E-04
2458766.583333333 = A.D. 2019-Oct-10 02:00:00.0000 (CT)
  -8.816102052382771E+00  2.848999928903509E+01 -8.871589951413416E-04
2458766.625000000 = A.D. 2019-Oct-10 03:00:00.0000 (CT)
  -8.836649234777019E+00  2.848401750224438E+01 -8.868323013494633E-04
2458766.666666667 = A.D. 2019-Oct-10 04:00:00.0000 (CT)
  -8.857192608173534E+00  2.847802081237266E+01 -8.865049389359366E-04
2458766.708333333 = A.D. 2019-Oct-10 05:00:00.0000 (CT)
  -8.877732161658049E+00  2.847200922145273E+01 -8.861769080065387E-04
2458766.750000000 = A.D. 2019-Oct-10 06:00:00.0000 (CT)
  -8.898267884316722E+00  2.846598273152548E+01 -8.858482086556152E-04
2458766.791666667 = A.D. 2019-Oct-10 07:00:00.0000 (CT)
  -8.918799765236130E+00  2.845994134463995E+01 -8.855188409905386E-04
2458766.833333333 = A.D. 2019-Oct-10 08:00:00.0000 (CT)
  -8.939327793503288E+00  2.845388506285330E+01 -8.851888051078999E-04
2458766.875000000 = A.D. 2019-Oct-10 09:00:00.0000 (CT)
  -8.959851958205657E+00  2.844781388823079E+01 -8.848581011057944E-04
2458766.916666667 = A.D. 2019-Oct-10 10:00:00.0000 (CT)
  -8.980372248431131E+00  2.844172782284582E+01 -8.845267290868613E-04
2458766.958333333 = A.D. 2019-Oct-10 11:00:00.0000 (CT)
  -9.000888653268063E+00  2.843562686877993E+01 -8.841946891495964E-04
2458767.000000000 = A.D. 2019-Oct-10 12:00:00.0000 (CT)
  -9.021401161805265E+00  2.842951102812277E+01 -8.838619813860615E-04
2458767.041666667 = A.D. 2019-Oct-10 13:00:00.0000 (CT)
  -9.041909763132008E+00  2.842338030297210E+01 -8.835286058955843E-04
